IRIDIUM 119             
1 42959U 17061E   25087.37563563  .00000100  00000+0  28782-4 0  9995
2 42959  86.4013 211.5022 0002127  87.6825 272.4615 14.34216197390911
IRIDIUM 107             
1 42960U 17061F   25087.32488643  .00000832  00000+0  28988-3 0  9996
2 42960  86.4018 211.5424 0001803  84.7203 275.4198 14.34214089390919
IRIDIUM 132             
1 42961U 17061G   25087.40099667  .00000730  00000+0  25343-3 0  9999
2 42961  86.4017 211.4933 0001984  92.3878 267.7545 14.34215036390920
IRIDIUM 136             
1 42962U 17061H   25087.43271710  .00000727  00000+0  25247-3 0  9993
2 42962  86.4021 211.4848 0002144  85.4481 274.6959 14.34219338390940
IRIDIUM 139             
1 42963U 17061J   25087.43905841  .00000634  00000+0  21925-3 0  9999
2 42963  86.4018 211.5366 0001864  91.1040 269.0370 14.34218199390956
IRIDIUM 125             
1 42964U 17061K   25087.42637434  .00000538  00000+0  18496-3 0  9991
2 42964  86.4017 211.5945 0002357  80.6307 279.5156 14.34219545390961
IRIDIUM 135             
1 43070U 17083A   25087.40050062  .00000528  00000+0  18159-3 0  9993
2 43070  86.3999 148.3828 0002388 101.2287 258.9178 14.34217992380256
IRIDIUM 138             
1 43071U 17083B   25087.21656787  .00000474  00000+0  16230-3 0  9997
2 43071  86.3985 148.1413 0002814  88.7994 271.3524 14.34218318380211
